{
    "links": {
        "self": "http://www.neowsapp.com/rest/v1/neo/3697796?api_key=iIulBulltgU6a56xZRHN4H3l9WmuAYTsLGpBGhQ2"
    },
    "id": "3697796",
    "neo_reference_id": "3697796",
    "name": "(2014 WY120)",
    "designation": "2014 WY120",
    "nasa_jpl_url": "http://ssd.jpl.nasa.gov/sbdb.cgi?sstr=3697796",
    "absolute_magnitude_h": 22.3,
    "estimated_diameter": {
        "kilometers": {
            "estimated_diameter_min": 0.0921626549,
            "estimated_diameter_max": 0.2060819612
        },
        "meters": {
            "estimated_diameter_min": 92.1626548503,
            "estimated_diameter_max": 206.0819612321
        },
        "miles": {
            "estimated_diameter_min": 0.057267201,
            "estimated_diameter_max": 0.1280533543
        },
        "feet": {
            "estimated_diameter_min": 302.370924539,
            "estimated_diameter_max": 676.1219416887
        }
    },
    "is_potentially_hazardous_asteroid": false,
    "close_approach_data": [
        {
            "close_approach_date": "2014-10-26",
            "close_approach_date_full": "2014-Oct-26 17:52",
            "epoch_date_close_approach": 1414345920000,
            "relative_velocity": {
                "kilometers_per_second": "3.1526830442",
                "kilometers_per_hour": "11349.6589591843",
                "miles_per_hour": "7052.236701611"
            },
            "miss_distance": {
                "astronomical": "0.2374086405",
                "lunar": "92.3519611545",
                "kilometers": "35515826.938395735",
                "miles": "22068511.529041743"
            },
            "orbiting_body": "Earth"
        },
        {
            "close_approach_date": "2190-07-18",
            "close_approach_date_full": "2190-Jul-18 20:47",
            "epoch_date_close_approach": 6959767620000,
            "relative_velocity": {
                "kilometers_per_second": "7.6405904463",
                "kilometers_per_hour": "27506.1256066456",
                "miles_per_hour": "17091.2367693071"
            },
            "miss_distance": {
                "astronomical": "0.0729645759",
                "lunar": "28.3832200251",
                "kilometers": "10915345.140093333",
                "miles": "6782480.9622326754"
            },
            "orbiting_body": "Mars"
        }
    ],
    "orbital_data": {
        "orbit_id": "7",
        "orbit_determination_date": "2017-04-06 08:37:20",
        "first_observation_date": "2014-11-19",
        "last_observation_date": "2014-12-26",
        "data_arc_in_days": 37,
        "observations_used": 23,
        "orbit_uncertainty": "7",
        "minimum_orbit_intersection": ".232259",
        "jupiter_tisserand_invariant": "3.811",
        "epoch_osculation": "2459000.5",
        "eccentricity": ".3984901336608832",
        "semi_major_axis": "1.919543142650027",
        "inclination": "9.210002161861913",
        "ascending_node_longitude": "106.2450723819941",
        "orbital_period": "971.3936120102852",
        "perihelion_distance": "1.154624139167586",
        "perihelion_argument": "279.5353132519861",
        "aphelion_distance": "2.684462146132469",
        "perihelion_time": "2458889.525663265118",
        "mean_anomaly": "41.12726368652977",
        "mean_motion": ".3706015723687797",
        "equinox": "J2000",
        "orbit_class": {
            "orbit_class_type": "AMO",
            "orbit_class_description": "Near-Earth asteroid orbits similar to that of 1221 Amor",
            "orbit_class_range": "1.017 AU < q (perihelion) < 1.3 AU"
        }
    },
    "is_sentry_object": false
}